{
  "type": "FeatureCollection",
  "features": [
    {
      "type": "Feature",
      "properties": {
        "norad_id": 41589,
        "name": "EUTELSAT 117 WEST B (WAAS/PRN 131)",
        "group": "gnss",
        "lat": -0.00458669474604163,
        "lon": 122.78907851316177,
        "alt_km": 35787.892313988625,
        "timestamp": "2025-12-24T09:46:31.246789+00:00",
        "meta_object_name": "EUTELSAT 117 WEST B (WAAS/PRN 131)",
        "meta_object_id": "2016-038B",
        "meta_epoch": "2025-12-23T15:59:57.810048",
        "meta_mean_motion": 1.00269264,
        "meta_eccentricity": 2.68e-05,
        "meta_inclination": 0.0112,
        "meta_ra_of_asc_node": 151.1868,
        "meta_arg_of_pericenter": 153.5074,
        "meta_mean_anomaly": 270.7383,
        "meta_ephemeris_type": 0,
        "meta_classification_type": "U",
        "meta_norad_cat_id": 41589,
        "meta_element_set_no": 999,
        "meta_rev_at_epoch": 3490,
        "meta_bstar": 0,
        "meta_mean_motion_dot": 1e-07,
        "meta_mean_motion_ddot": 0,
        "tle_line1": "1 41589U 16038B   25357.66664132  .00000010  00000+0  00000+0 0  9990",
        "tle_line2": "2 41589   0.0112 151.1868 0000268 153.5074 270.7383  1.00269264 34900"
      },
      "geometry": {
        "type": "Point",
        "coordinates": [
          122.78907851316177,
          -0.00458669474604163
        ]
      }
    },
    {
      "type": "Feature",
      "properties": {
        "norad_id": 41859,
        "name": "GSAT0207 (GALILEO 15)",
        "group": "gnss",
        "lat": -52.814360815210755,
        "lon": 40.566684953572356,
        "alt_km": 23221.829759118318,
        "timestamp": "2025-12-24T09:46:31.246800+00:00",
        "meta_object_name": "GSAT0207 (GALILEO 15)",
        "meta_object_id": "2016-069A",
        "meta_epoch": "2025-12-22T04:24:39.710016",
        "meta_mean_motion": 1.70474442,
        "meta_eccentricity": 0.00024396,
        "meta_inclination": 55.3874,
        "meta_ra_of_asc_node": 105.9888,
        "meta_arg_of_pericenter": 317.4324,
        "meta_mean_anomaly": 42.5257,
        "meta_ephemeris_type": 0,
        "meta_classification_type": "U",
        "meta_norad_cat_id": 41859,
        "meta_element_set_no": 999,
        "meta_rev_at_epoch": 5638,
        "meta_bstar": 0,
        "meta_mean_motion_dot": 6e-08,
        "meta_mean_motion_ddot": 0,
        "tle_line1": "1 41859U 16069A   25356.18379294  .00000006  00000+0  00000+0 0  9997",
        "tle_line2": "2 41859  55.3874 105.9888 0002439 317.4324  42.5257  1.70474442 56382"
      },
      "geometry": {
        "type": "Point",
        "coordinates": [
          40.566684953572356,
          -52.814360815210755
        ]
      }
    },
    {
      "type": "Feature",
      "properties": {
        "norad_id": 41860,
        "name": "GSAT0212 (GALILEO 16)",
        "group": "gnss",
        "lat": 11.845288829826202,
        "lon": 114.23939620424201,
        "alt_km": 23214.783764886568,
        "timestamp": "2025-12-24T09:46:31.246811+00:00",
        "meta_object_name": "GSAT0212 (GALILEO 16)",
        "meta_object_id": "2016-069B",
        "meta_epoch": "2025-12-23T19:07:58.352160",
        "meta_mean_motion": 1.7047463,
        "meta_eccentricity": 0.00020402,
        "meta_inclination": 55.386,
        "meta_ra_of_asc_node": 105.9395,
        "meta_arg_of_pericenter": 18.1748,
        "meta_mean_anomaly": 341.8198,
        "meta_ephemeris_type": 0,
        "meta_classification_type": "U",
        "meta_norad_cat_id": 41860,
        "meta_element_set_no": 999,
        "meta_rev_at_epoch": 5666,
        "meta_bstar": 0,
        "meta_mean_motion_dot": 1.3e-07,
        "meta_mean_motion_ddot": 0,
        "tle_line1": "1 41860U 16069B   25357.79720315  .00000013  00000+0  00000+0 0  9999",
        "tle_line2": "2 41860  55.3860 105.9395 0002040  18.1748 341.8198  1.70474630 56664"
      },
      "geometry": {
        "type": "Point",
        "coordinates": [
          114.23939620424201,
          11.845288829826202
        ]
      }
    },
    {
      "type": "Feature",
      "properties": {
        "norad_id": 41861,
        "name": "GSAT0213 (GALILEO 17)",
        "group": "gnss",
        "lat": 25.20125775897122,
        "lon": -93.00514138510754,
        "alt_km": 23224.592721289304,
        "timestamp": "2025-12-24T09:46:31.246822+00:00",
        "meta_object_name": "GSAT0213 (GALILEO 17)",
        "meta_object_id": "2016-069C",
        "meta_epoch": "2025-12-21T19:38:29.842080",
        "meta_mean_motion": 1.70474953,
        "meta_eccentricity": 0.00027355,
        "meta_inclination": 55.3872,
        "meta_ra_of_asc_node": 106.002,
        "meta_arg_of_pericenter": 282.3014,
        "meta_mean_anomaly": 77.6427,
        "meta_ephemeris_type": 0,
        "meta_classification_type": "U",
        "meta_norad_cat_id": 41861,
        "meta_element_set_no": 999,
        "meta_rev_at_epoch": 5649,
        "meta_bstar": 0,
        "meta_mean_motion_dot": 4e-08,
        "meta_mean_motion_ddot": 0,
        "tle_line1": "1 41861U 16069C   25355.81840095  .00000004  00000+0  00000+0 0  9999",
        "tle_line2": "2 41861  55.3872 106.0020 0002735 282.3014  77.6427  1.70474953 56495"
      },
      "geometry": {
        "type": "Point",
        "coordinates": [
          -93.00514138510754,
          25.20125775897122
        ]
      }
    },
    {
      "type": "Feature",
      "properties": {
        "norad_id": 41862,
        "name": "GSAT0214 (GALILEO 18)",
        "group": "gnss",
        "lat": 45.037199414491425,
        "lon": 149.59427571855127,
        "alt_km": 23219.864007973458,
        "timestamp": "2025-12-24T09:46:31.246836+00:00",
        "meta_object_name": "GSAT0214 (GALILEO 18)",
        "meta_object_id": "2016-069D",
        "meta_epoch": "2025-12-21T09:04:04.029024",
        "meta_mean_motion": 1.70474854,
        "meta_eccentricity": 0.00016223,
        "meta_inclination": 55.385,
        "meta_ra_of_asc_node": 106.0069,
        "meta_arg_of_pericenter": 287.8422,
        "meta_mean_anomaly": 72.112,
        "meta_ephemeris_type": 0,
        "meta_classification_type": "U",
        "meta_norad_cat_id": 41862,
        "meta_element_set_no": 999,
        "meta_rev_at_epoch": 5661,
        "meta_bstar": 0,
        "meta_mean_motion_dot": 2e-08,
        "meta_mean_motion_ddot": 0,
        "tle_line1": "1 41862U 16069D   25355.37782441  .00000002  00000+0  00000+0 0  9999",
        "tle_line2": "2 41862  55.3850 106.0069 0001622 287.8422  72.1120  1.70474854 56616"
      },
      "geometry": {
        "type": "Point",
        "coordinates": [
          149.59427571855127,
          45.037199414491425
        ]
      }
    },
    {
      "type": "Feature",
      "properties": {
        "norad_id": 42709,
        "name": "SES-15 (WAAS/PRN 133)",
        "group": "gnss",
        "lat": 0.03170071062421992,
        "lon": 110.65095652505624,
        "alt_km": 35787.95673055997,
        "timestamp": "2025-12-24T09:46:31.246848+00:00",
        "meta_object_name": "SES-15 (WAAS/PRN 133)",
        "meta_object_id": "2017-026A",
        "meta_epoch": "2025-12-23T15:56:35.633184",
        "meta_mean_motion": 1.00266715,
        "meta_eccentricity": 1.317e-05,
        "meta_inclination": 0.0207,
        "meta_ra_of_asc_node": 333.8243,
        "meta_arg_of_pericenter": 338.0237,
        "meta_mean_anomaly": 250.608,
        "meta_ephemeris_type": 0,
        "meta_classification_type": "U",
        "meta_norad_cat_id": 42709,
        "meta_element_set_no": 999,
        "meta_rev_at_epoch": 567,
        "meta_bstar": 0,
        "meta_mean_motion_dot": 8.1e-07,
        "meta_mean_motion_ddot": 0,
        "tle_line1": "1 42709U 17026A   25357.66430131  .00000081  00000+0  00000+0 0  9991",
        "tle_line2": "2 42709   0.0207 333.8243 0000131 338.0237 250.6080  1.00266715  5677"
      },
      "geometry": {
        "type": "Point",
        "coordinates": [
          110.65095652505624,
          0.03170071062421992
        ]
      }
    },
    {
      "type": "Feature",
      "properties": {
        "norad_id": 42738,
        "name": "QZS-2 (QZSS/PRN 194)",
        "group": "gnss",
        "lat": 29.171514313286753,
        "lon": 23.507417256049486,
        "alt_km": 38079.96282955439,
        "timestamp": "2025-12-24T09:46:31.246910+00:00",
        "meta_object_name": "QZS-2 (QZSS/PRN 194)",
        "meta_object_id": "2017-028A",
        "meta_epoch": "2025-12-21T12:44:15.516096",
        "meta_mean_motion": 1.00280763,
        "meta_eccentricity": 0.07561437,
        "meta_inclination": 39.6996,
        "meta_ra_of_asc_node": 245.7532,
        "meta_arg_of_pericenter": 269.5788,
        "meta_mean_anomaly": 268.1676,
        "meta_ephemeris_type": 0,
        "meta_classification_type": "U",
        "meta_norad_cat_id": 42738,
        "meta_element_set_no": 999,
        "meta_rev_at_epoch": 584,
        "meta_bstar": 0,
        "meta_mean_motion_dot": -1.06e-06,
        "meta_mean_motion_ddot": 0,
        "tle_line1": "1 42738U 17028A   25355.53073514 -.00000106  00000+0  00000+0 0  9996",
        "tle_line2": "2 42738  39.6996 245.7532 0756143 269.5788 268.1676  1.00280763  5847"
      },
      "geometry": {
        "type": "Point",
        "coordinates": [
          23.507417256049486,
          29.171514313286753
        ]
      }
    }
  ]
}